*******************************************************************************
JPL/HORIZONS              134 Sophrosyne (A873 SA)         2020-Jun-20 08:18:53
Rec #:     134 (+COV) Soln.date: 2020-May-20_00:59:16   # obs: 2250 (1877-2020)
 
IAU76/J2000 helio. ecliptic osc. elements (au, days, deg., period=Julian yrs):
 
  EPOCH=  2454890.5 ! 2009-Feb-28.00 (TDB)         Residual RMS= .26894
   EC= .1155000400839443   QR= 2.267294187678218   TP= 2455144.5186171648
   OM= 346.0481211663649   W=  84.78391638663479   IN= 11.59614334766879
   A= 2.563362679963714    MA= 298.9965305027495   ADIST= 2.85943117224921
   PER= 4.10415            N= .240153531           ANGMOM= .027357107
   DAN= 2.50289            DDN= 2.55601            L= 70.7239708
   B= 11.5474604           MOID= 1.31468999        TP= 2009-Nov-09.0186171648
 
Asteroid physical parameters (km, seconds, rotational period in hours):
   GM= n.a.                RAD= 54.                ROTPER= 17.196
   H= 9.                   G= .280                 B-V= .690
                           ALBEDO= .0364           STYP= Ch
 
ASTEROID comments: 
1: soln ref.= JPL#108, OCC=0
2: source=ORB
*******************************************************************************
 
 
*******************************************************************************
Ephemeris / WWW_USER Sat Jun 20 08:18:53 2020 Pasadena, USA      / Horizons
*******************************************************************************
Target body name: 134 Sophrosyne (A873 SA)        {source: JPL#108}
Center body name: Solar System Barycenter (0)     {source: DE431}
Center-site name: BODY CENTER
*******************************************************************************
Start time      : A.D. 1969-Jun-28 00:00:00.0000 TDB
Stop  time      : A.D. 2071-May-04 00:00:00.0000 TDB
Step-size       : 7200 minutes
*******************************************************************************
Center geodetic : 0.00000000,0.00000000,0.0000000 {E-lon(deg),Lat(deg),Alt(km)}
Center cylindric: 0.00000000,0.00000000,0.0000000 {E-lon(deg),Dxy(km),Dz(km)}
Center radii    : (undefined)                                                  
Small perturbers: Yes                             {source: SB431-N16}
Output units    : AU-D
Output type     : GEOMETRIC cartesian states
Output format   : 2 (position and velocity)
Reference frame : Ecliptic of J2000.0
*******************************************************************************
Initial IAU76/J2000 heliocentric ecliptic osculating elements (au, days, deg.):
  EPOCH=  2454890.5 ! 2009-Feb-28.00 (TDB)         Residual RMS= .26894        
   EC= .1155000400839443   QR= 2.267294187678218   TP= 2455144.5186171648      
   OM= 346.0481211663649   W=  84.78391638663479   IN= 11.59614334766879       
  Equivalent ICRF heliocentric equatorial cartesian coordinates (au, au/d):
   X= 2.443399468002339E+00  Y=-1.463380326457727E-01  Z= 4.287406463925991E-02
  VX=-7.574081010541418E-04 VY= 9.239296185740545E-03 VZ= 6.353414920835999E-03
Asteroid physical parameters (km, seconds, rotational period in hours):        
   GM= n.a.                RAD= 54.                ROTPER= 17.196              
   H= 9.                   G= .280                 B-V= .690                   
                           ALBEDO= .0364           STYP= Ch                    
*******************************************************************************
            JDTDB,            Calendar Date (TDB),        delta-T,                      X,                      Y,                      Z,                     VX,                     VY,                     VZ,
******************************************************************************************************************************************************************************************************************
$$SOE
2464620.500000000, A.D. 2035-Oct-20 00:00:00.0000,      69.182404, -2.587037157809084E+00, -7.769648711810300E-01, -2.843150350830113E-01,  2.072883915052668E-03, -9.762286988321742E-03, -1.840539233141012E-03,
2464625.500000000, A.D. 2035-Oct-25 00:00:00.0000,      69.182442, -2.576194710432045E+00, -8.256305629181220E-01, -2.934644826383090E-01,  2.263787668786294E-03, -9.703443180131312E-03, -1.819146411104604E-03,
2464630.500000000, A.D. 2035-Oct-30 00:00:00.0000,      69.182494, -2.564402387774459E+00, -8.739938829646771E-01, -3.025055761069613E-01,  2.452827479423849E-03, -9.641347349048056E-03, -1.797199731883918E-03,
2464635.500000000, A.D. 2035-Nov-04 00:00:00.0000,      69.182557, -2.551669606561646E+00, -9.220387064472702E-01, -3.114355780804489E-01,  2.639964782842413E-03, -9.576053528122824E-03, -1.774711921659513E-03,
2464640.500000000, A.D. 2035-Nov-09 00:00:00.0000,      69.182630, -2.538005972786048E+00, -9.697491776891183E-01, -3.202518144080909E-01,  2.825162427618657E-03, -9.507615359413598E-03, -1.751695557125201E-03,
2464645.500000000, A.D. 2035-Nov-14 00:00:00.0000,      69.182713, -2.523421274773232E+00, -1.017109708203913E+00, -3.289516734459981E-01,  3.008384623409429E-03, -9.436086073906978E-03, -1.728163064105710E-03,
2464650.500000000, A.D. 2035-Nov-19 00:00:00.0000,      69.182804, -2.507925476503485E+00, -1.064104974595230E+00, -3.375326053000995E-01,  3.189596890297653E-03, -9.361518473806731E-03, -1.704126716574720E-03,
2464655.500000000, A.D. 2035-Nov-24 00:00:00.0000,      69.182906, -2.491528711184608E+00, -1.110719916372907E+00, -3.459921210652883E-01,  3.368766008957376E-03, -9.283964916991273E-03, -1.679598636080510E-03,
2464660.500000000, A.D. 2035-Nov-29 00:00:00.0000,      69.183018, -2.474241275071797E+00, -1.156939733696649E+00, -3.543277920626315E-01,  3.545859971667363E-03, -9.203477303415430E-03, -1.654590791537142E-03,
2464665.500000000, A.D. 2035-Dec-04 00:00:00.0000,      69.183137, -2.456073621530129E+00, -1.202749885056169E+00, -3.625372490763439E-01,  3.720847934274871E-03, -9.120107063303597E-03, -1.629114999332009E-03,
2464670.500000000, A.D. 2035-Dec-09 00:00:00.0000,      69.183263, -2.437036355334674E+00, -1.248136084896579E+00, -3.706181815920178E-01,  3.893700169190057E-03, -9.033905147045386E-03, -1.603182923716074E-03,
2464675.500000000, A.D. 2035-Dec-14 00:00:00.0000,      69.183392, -2.417140227202972E+00, -1.293084301197377E+00, -3.785683370374678E-01,  4.064388019446582E-03, -8.944922016727117E-03, -1.576806077457761E-03,
2464680.500000000, A.D. 2035-Dec-19 00:00:00.0000,      69.183525, -2.396396128554535E+00, -1.337580753013040E+00, -3.863855200274786E-01,  4.232883853834144E-03, -8.853207639230228E-03, -1.549995822747297E-03,
2464685.500000000, A.D. 2035-Dec-24 00:00:00.0000,      69.183664, -2.374815086492006E+00, -1.381611907982861E+00, -3.940675916136698E-01,  4.399161023099683E-03, -8.758811480815514E-03, -1.522763372337524E-03,
2464690.500000000, A.D. 2035-Dec-29 00:00:00.0000,      69.183807, -2.352408258998633E+00, -1.425164479817211E+00, -4.016124685406160E-01,  4.563193817225112E-03, -8.661782503092314E-03, -1.495119790899812E-03,
2464695.500000000, A.D. 2036-Jan-03 00:00:00.0000,      69.183951, -2.329186930346569E+00, -1.468225425766887E+00, -4.090181225092177E-01,  4.724957423832583E-03, -8.562169160260131E-03, -1.467075996562773E-03,
2464700.500000000, A.D. 2036-Jan-08 00:00:00.0000,      69.184095, -2.305162506710114E+00, -1.510781944081645E+00, -4.162825794481465E-01,  4.884427887823155E-03, -8.460019397546249E-03, -1.438642762599980E-03,
2464705.500000000, A.D. 2036-Jan-13 00:00:00.0000,      69.184236, -2.280346511977601E+00, -1.552821471464063E+00, -4.234039187941319E-01,  5.041582072251788E-03, -8.355380650918395E-03, -1.409830719289212E-03,
2464710.500000000, A.D. 2036-Jan-18 00:00:00.0000,      69.184375, -2.254750583756366E+00, -1.594331680525467E+00, -4.303802727821532E-01,  5.196397620166947E-03, -8.248299848211566E-03, -1.380650356030266E-03,
2464715.500000000, A.D. 2036-Jan-23 00:00:00.0000,      69.184513, -2.228386469566655E+00, -1.635300477250786E+00, -4.372098257469225E-01,  5.348852917175007E-03, -8.138823411519010E-03, -1.351112023732946E-03,
2464720.500000000, A.D. 2036-Jan-28 00:00:00.0000,      69.184648, -2.201266023220796E+00, -1.675715998477839E+00, -4.438908134367973E-01,  5.498927054815544E-03, -8.026997260520570E-03, -1.321225937381456E-03,
2464725.500000000, A.D. 2036-Feb-02 00:00:00.0000,      69.184778, -2.173401201382926E+00, -1.715566609395103E+00, -4.504215223407303E-01,  5.646599794995493E-03, -7.912866816532712E-03, -1.291002178672174E-03,
2464730.500000000, A.D. 2036-Feb-07 00:00:00.0000,      69.184901, -2.144804060303578E+00, -1.754840901061494E+00, -4.568002890285019E-01,  5.791851535625054E-03, -7.796477007270590E-03, -1.260450698689476E-03,
2464735.500000000, A.D. 2036-Feb-12 00:00:00.0000,      69.185016, -2.115486752723005E+00, -1.793527687951900E+00, -4.630254995044549E-01,  5.934663277482525E-03, -7.677872272406112E-03, -1.229581320635808E-03,
2464740.500000000, A.D. 2036-Feb-17 00:00:00.0000,      69.185122, -2.085461524937267E+00, -1.831616005532705E+00, -4.690955885751148E-01,  6.075016592224217E-03, -7.557096570020385E-03, -1.198403742665576E-03,
2464745.500000000, A.D. 2036-Feb-22 00:00:00.0000,      69.185222, -2.054740714021691E+00, -1.869095107871896E+00, -4.750090392313343E-01,  6.212893591398623E-03, -7.434193383974513E-03, -1.166927540864658E-03,
2464750.500000000, A.D. 2036-Feb-27 00:00:00.0000,      69.185313, -2.023336745207015E+00, -1.905954465288184E+00, -4.807643820457219E-01,  6.348276896347144E-03, -7.309205732132012E-03, -1.135162172383774E-03,
2464755.500000000, A.D. 2036-Mar-03 00:00:00.0000,      69.185395, -1.991262129403895E+00, -1.942183762043128E+00, -4.863601945860725E-01,  6.481149608959200E-03, -7.182176175319973E-03, -1.103116978699201E-03,
